OBJECT_NAME,OBJECT_ID,EPOCH,MEAN_MOTION,ECCENTRICITY,INCLINATION,RA_OF_ASC_NODE,ARG_OF_PERICENTER,MEAN_ANOMALY,EPHEMERIS_TYPE,CLASSIFICATION_TYPE,NORAD_CAT_ID,ELEMENT_SET_NO,REV_AT_EPOCH,BSTAR,MEAN_MOTION_DOT,MEAN_MOTION_DDOT
STARLINK-4343,2022-077H,2026-06-19T11:42:26.942976,15.05656291,.00022687,97.3393,350.4534,104.3546,255.7933,0,U,53050,999,21629,-.3369147E-4,-.543E-5,0
STARLINK-4336,2022-077J,2026-06-19T10:48:38.600064,15.05673942,.00023067,97.3418,349.2723,73.5776,286.5705,0,U,53051,999,21621,-.42223536E-4,-.667E-5,0
STARLINK-4341,2022-077K,2026-06-19T12:08:17.151648,15.05740136,.00014318,97.3438,349.3609,97.9724,262.1666,0,U,53052,999,21622,.75197395E-3,.10835E-3,0
STARLINK-4337,2022-077L,2026-06-19T09:08:57.580800,15.05619760,.00017483,97.3401,349.2050,83.3250,276.8176,0,U,53053,999,21620,.61042658E-3,.8754E-4,0
STARLINK-4339,2022-077M,2026-06-19T09:14:53.475360,15.05667004,.00015269,97.3405,350.4311,79.0156,281.1243,0,U,53054,999,21628,-.79387542E-4,-.1203E-4,0
STARLINK-4338,2022-077N,2026-06-19T11:34:29.112096,15.05562038,.0001321,97.3397,350.4359,99.7347,260.4029,0,U,53055,999,21629,.12644302E-2,.1819E-3,0
STARLINK-4314,2022-077P,2026-06-19T01:40:19.560576,15.05655574,.00019028,97.3440,350.0824,91.4908,268.6537,0,U,53056,999,21623,-.12291885E-3,-.183E-4,0
STARLINK-4252,2022-077Q,2026-06-19T11:50:25.662048,15.05653052,.00023762,97.3413,350.5619,95.5992,264.5507,0,U,53057,999,21630,.7601556E-5,.53E-6,0
STARLINK-4317,2022-077R,2026-06-19T09:20:57.214176,15.05634135,.00006309,97.3454,349.3424,12.4463,347.6779,0,U,53058,999,21622,-.26695505E-3,-.3905E-4,0
STARLINK-4320,2022-077S,2026-06-19T11:40:30.252864,15.05590299,.00021532,97.3398,349.3456,130.5576,229.5840,0,U,53059,999,21622,.85687071E-3,.12308E-3,0
STARLINK-4305,2022-077T,2026-06-19T09:04:57.633312,15.05667012,.000216,97.3395,349.2002,59.7048,300.4393,0,U,53060,999,21620,-.89456421E-4,-.1348E-4,0
STARLINK-4308,2022-077U,2026-06-19T11:32:31.913952,15.05586738,.00019158,97.3396,349.3490,107.3103,252.8334,0,U,53061,999,21622,.87590494E-3,.12582E-3,0
STARLINK-4311,2022-077V,2026-06-19T09:17:01.241088,15.05601844,.0000219,97.3484,349.3345,97.9763,262.1490,0,U,53062,999,21621,-.45510447E-3,-.6609E-4,0
STARLINK-4307,2022-077W,2026-06-19T12:14:20.710752,15.05652255,.00018999,97.3395,350.4501,81.6726,278.4717,0,U,53063,999,8788,-.46160027E-4,-.723E-5,0
STARLINK-4313,2022-077X,2026-06-19T09:18:53.644032,15.05615493,.00010795,97.3441,350.3929,57.1070,303.0261,0,U,53064,999,21628,.9067227E-3,.13037E-3,0
STARLINK-4312,2022-077Y,2026-06-19T12:12:23.408064,15.05658471,.00019717,97.3397,349.4565,89.6811,270.4643,0,U,53065,999,21623,-.20002184E-4,-.346E-5,0
STARLINK-4309,2022-077Z,2026-06-19T01:34:23.040480,15.05650606,.00012408,97.3457,348.9862,118.2452,241.8901,0,U,53066,999,21616,.25176933E-3,.3577E-4,0
STARLINK-4325,2022-077AB,2026-06-19T09:10:53.298048,15.05680741,.00018779,97.3402,350.3847,82.9841,277.1600,0,U,53068,999,21628,-.42231398E-3,-.615E-4,0
STARLINK-4323,2022-077AC,2026-06-19T11:36:30.837600,15.05617942,.00019795,97.3435,349.3206,100.4905,259.6546,0,U,53069,999,21622,.71177059E-3,.10219E-3,0
STARLINK-4342,2022-077AD,2026-06-19T11:26:30.628032,15.05601379,.00014416,97.3396,350.5616,94.2359,265.9034,0,U,53070,999,21630,.7145881E-3,.10255E-3,0
STARLINK-4328,2022-077AE,2026-06-19T01:48:18.250272,15.05659359,.0001403,97.3439,350.1693,88.5158,271.6230,0,U,53071,999,21624,-.14555737E-3,-.2157E-4,0
STARLINK-4344,2022-077AF,2026-06-19T01:28:20.939808,15.05657389,.00010972,97.3440,350.0446,127.0455,233.0873,0,U,53072,999,21623,-.3954686E-4,-.628E-5,0
STARLINK-4346,2022-077AG,2026-06-19T12:24:13.777632,15.22773100,.00049613,97.6360,0.1008,216.8129,143.2767,0,U,53073,999,21678,.47612493E-3,.11059E-3,0
STARLINK-4310,2022-077AH,2026-06-19T20:00:01.999008,15.28322147,.0001063,97.5804,352.1702,55.9851,282.3297,0,U,53074,999,583,.4601E-1,.1399765E-1,0
STARLINK-4348,2022-077AJ,2026-06-19T11:44:28.844736,15.05650551,.00015995,97.3405,349.4440,89.4545,270.6865,0,U,53075,999,21623,.5988679E-5,.29E-6,0
STARLINK-4347,2022-077AK,2026-06-19T01:46:20.688384,15.05647087,.00012499,97.3412,348.9477,92.2886,267.8485,0,U,53076,999,21616,.41379823E-4,.54E-5,0
STARLINK-4322,2022-077AM,2026-06-19T11:52:28.586784,15.05595416,.00022267,97.3409,349.4409,109.7580,250.3887,0,U,53078,999,21623,.82669005E-3,.11873E-3,0
STARLINK-4327,2022-077AN,2026-06-19T11:46:25.730976,15.05648004,.00018643,97.3389,350.5008,88.0826,272.0615,0,U,53079,999,21630,.975088E-5,.84E-6,0
STARLINK-4330,2022-077AP,2026-06-19T12:10:20.170560,15.05660090,.00020509,97.3408,350.4882,84.6566,275.4895,0,U,53080,999,21630,-.6511443E-4,-.997E-5,0
STARLINK-4326,2022-077AQ,2026-06-19T01:30:23.366016,15.05659339,.00009665,97.3413,348.9347,82.2949,277.8389,0,U,53081,999,21616,-.88885902E-4,-.134E-4,0
