STARLINK-4343           
1 53050U 22077H   26170.48781184 -.00000543  00000+0 -33691-4 0  9997
2 53050  97.3393 350.4534 0002268 104.3546 255.7933 15.05656291216298
STARLINK-4336           
1 53051U 22077J   26170.45044676 -.00000667  00000+0 -42224-4 0  9992
2 53051  97.3418 349.2723 0002306  73.5776 286.5705 15.05673942216211
STARLINK-4341           
1 53052U 22077K   26170.50575407  .00010835  00000+0  75197-3 0  9990
2 53052  97.3438 349.3609 0001431  97.9724 262.1666 15.05740136216226
STARLINK-4337           
1 53053U 22077L   26170.38122200  .00008754  00000+0  61043-3 0  9998
2 53053  97.3401 349.2050 0001748  83.3250 276.8176 15.05619760216204
STARLINK-4339           
1 53054U 22077M   26170.38534115 -.00001203  00000+0 -79388-4 0  9997
2 53054  97.3405 350.4311 0001526  79.0156 281.1243 15.05667004216280
STARLINK-4338           
1 53055U 22077N   26170.48228139  .00018190  00000+0  12644-2 0  9996
2 53055  97.3397 350.4359 0001321  99.7347 260.4029 15.05562038216291
STARLINK-4314           
1 53056U 22077P   26170.06967084 -.00001830  00000+0 -12292-3 0  9995
2 53056  97.3440 350.0824 0001902  91.4908 268.6537 15.05655574216237
STARLINK-4252           
1 53057U 22077Q   26170.49335257  .00000053  00000+0  76016-5 0  9994
2 53057  97.3413 350.5619 0002376  95.5992 264.5507 15.05653052216308
STARLINK-4317           
1 53058U 22077R   26170.38955109 -.00003905  00000+0 -26696-3 0  9995
2 53058  97.3454 349.3424 0000630  12.4463 347.6779 15.05634135216222
STARLINK-4320           
1 53059U 22077S   26170.48646126  .00012308  00000+0  85687-3 0  9993
2 53059  97.3398 349.3456 0002153 130.5576 229.5840 15.05590299216223
STARLINK-4305           
1 53060U 22077T   26170.37844483 -.00001348  00000+0 -89456-4 0  9992
2 53060  97.3395 349.2002 0002160  59.7048 300.4393 15.05667012216200
STARLINK-4308           
1 53061U 22077U   26170.48092493  .00012582  00000+0  87590-3 0  9997
2 53061  97.3396 349.3490 0001915 107.3103 252.8334 15.05586738216225
STARLINK-4311           
1 53062U 22077V   26170.38681992 -.00006609  00000+0 -45510-3 0  9996
2 53062  97.3484 349.3345 0000219  97.9763 262.1490 15.05601844216217
STARLINK-4307           
1 53063U 22077W   26170.50996193 -.00000723  00000+0 -46160-4 0  9997
2 53063  97.3395 350.4501 0001899  81.6726 278.4717 15.05652255 87883
STARLINK-4313           
1 53064U 22077X   26170.38812088  .00013037  00000+0  90672-3 0  9990
2 53064  97.3441 350.3929 0001079  57.1070 303.0261 15.05615493216289
STARLINK-4312           
1 53065U 22077Y   26170.50860426 -.00000346  00000+0 -20002-4 0  9996
2 53065  97.3397 349.4565 0001971  89.6811 270.4643 15.05658471216238
STARLINK-4309           
1 53066U 22077Z   26170.06554445  .00003577  00000+0  25177-3 0  9993
2 53066  97.3457 348.9862 0001240 118.2452 241.8901 15.05650606216162
STARLINK-4325           
1 53068U 22077AB  26170.38256132 -.00006150  00000+0 -42231-3 0  9994
2 53068  97.3402 350.3847 0001877  82.9841 277.1600 15.05680741216283
STARLINK-4323           
1 53069U 22077AC  26170.48369025  .00010219  00000+0  71177-3 0  9992
2 53069  97.3435 349.3206 0001979 100.4905 259.6546 15.05617942216228
STARLINK-4342           
1 53070U 22077AD  26170.47674338  .00010255  00000+0  71459-3 0  9992
2 53070  97.3396 350.5616 0001441  94.2359 265.9034 15.05601379216300
STARLINK-4328           
1 53071U 22077AE  26170.07521123 -.00002157  00000+0 -14556-3 0  9991
2 53071  97.3439 350.1693 0001403  88.5158 271.6230 15.05659359216247
STARLINK-4344           
1 53072U 22077AF  26170.06135347 -.00000628  00000+0 -39547-4 0  9999
2 53072  97.3440 350.0446 0001097 127.0455 233.0873 15.05657389216238
STARLINK-4346           
1 53073U 22077AG  26170.51682613  .00011059  00000+0  47612-3 0  9992
2 53073  97.6360   0.1008 0004961 216.8129 143.2767 15.22773100216781
STARLINK-4310           
1 53074U 22077AH  26170.83335647  .01399765  00000+0  46010-1 0  9993
2 53074  97.5804 352.1702 0001063  55.9851 282.3297 15.28322147  5831
STARLINK-4348           
1 53075U 22077AJ  26170.48922274  .00000029  00000+0  59887-5 0  9994
2 53075  97.3405 349.4440 0001599  89.4545 270.6865 15.05650551216238
STARLINK-4347           
1 53076U 22077AK  26170.07385056  .00000540  00000+0  41380-4 0  9997
2 53076  97.3412 348.9477 0001249  92.2886 267.8485 15.05647087216161
STARLINK-4322           
1 53078U 22077AM  26170.49477531  .00011873  00000+0  82669-3 0  9990
2 53078  97.3409 349.4409 0002226 109.7580 250.3887 15.05595416216230
STARLINK-4327           
1 53079U 22077AN  26170.49057559  .00000084  00000+0  97509-5 0  9998
2 53079  97.3389 350.5008 0001864  88.0826 272.0615 15.05648004216305
STARLINK-4330           
1 53080U 22077AP  26170.50717790 -.00000997  00000+0 -65114-4 0  9993
2 53080  97.3408 350.4882 0002050  84.6566 275.4895 15.05660090216305
STARLINK-4326           
1 53081U 22077AQ  26170.06277044 -.00001340  00000+0 -88886-4 0  9992
2 53081  97.3413 348.9347 0000966  82.2949 277.8389 15.05659339216165
